{
  "type": "FeatureCollection",
  "features": [
    {
      "type": "Feature",
      "id": 37,
      "geometry": {
        "type": "Polygon",
        "coordinates": [
          [
            [
              -79.3890467481438,
              43.675743842837136
            ],
            [
              -79.38909527959278,
              43.67586998042763
            ],
            [
              -79.38923824593016,
              43.676241666526636
            ],
            [
              -79.38927692656209,
              43.676336532901196
            ],
            [
              -79.38949302396064,
              43.67686668567004
            ],
            [
              -79.38952378671028,
              43.676944648821255
            ],
            [
              -79.38956047860351,
              43.67704241159071
            ],
            [
              -79.38969373506286,
              43.67736925209862
            ],
            [
              -79.38988445686604,
              43.67783597426517
            ],
            [
              -79.39003772139765,
              43.67819693058613
            ],
            [
              -79.39043249554432,
              43.67914576930624
            ],
            [
              -79.39072800547493,
              43.679899561207776
            ],
            [
              -79.39096892738029,
              43.68050862209186
            ],
            [
              -79.39119481349887,
              43.681081131767456
            ],
            [
              -79.39140545428158,
              43.68096951777146
            ],
            [
              -79.39322373555238,
              43.680165631180365
            ],
            [
              -79.39580883135318,
              43.67898000518368
            ],
            [
              -79.39734939908297,
              43.678274813691985
            ],
            [
              -79.3974560685152,
              43.67822540219002
            ],
            [
              -79.39756388167508,
              43.678166999297616
            ],
            [
              -79.39767128247261,
              43.678117588249265
            ],
            [
              -79.3977794892389,
              43.678068177820236
            ],
            [
              -79.3978885220064,
              43.67801426736777
            ],
            [
              -79.39793134246347,
              43.67799495277899
            ],
            [
              -79.3979979686145,
              43.67796486683985
            ],
            [
              -79.39810771271114,
              43.67791545747058
            ],
            [
              -79.39821786589998,
              43.67786604835976
            ],
            [
              -79.39832842818002,
              43.67781663950618
            ],
            [
              -79.39843970958927,
              43.67776724018546
            ],
            [
              -79.39855098311212,
              43.67772241341823
            ],
            [
              -79.39866308272181,
              43.677673005604035
            ],
            [
              -79.39877517473316,
              43.67762800831836
            ],
            [
              -79.39888798559834,
              43.67758319158459
            ],
            [
              -79.39900120588275,
              43.67753818607318
            ],
            [
              -79.39911484249147,
              43.677488869185474
            ],
            [
              -79.39920256574638,
              43.67745744195981
            ],
            [
              -79.39929019234555,
              43.67741701326362
            ],
            [
              -79.3993786423967,
              43.67738099587061
            ],
            [
              -79.39946740225889,
              43.67734505969324
            ],
            [
              -79.39955665042562,
              43.677313723549304
            ],
            [
              -79.39964622875404,
              43.67727770693995
            ],
            [
              -79.39973569505707,
              43.677241870188254
            ],
            [
              -79.39982618328662,
              43.6772104449078
            ],
            [
              -79.39991686985456,
              43.67717901972917
            ],
            [
              -79.4000075563429,
              43.677147585477016
            ],
            [
              -79.40009916032288,
              43.67711625096911
            ],
            [
              -79.40019067274976,
              43.67708023562208
            ],
            [
              -79.40028248753052,
              43.67704880213641
            ],
            [
              -79.40037521250353,
              43.67702187903066
            ],
            [
              -79.40046783817769,
              43.67699495576311
            ],
            [
              -79.40056097968348,
              43.67696353220977
            ],
            [
              -79.40065411353326,
              43.67693669024493
            ],
            [
              -79.40074787509985,
              43.67690517706467
            ],
            [
              -79.40084170841166,
              43.676882755201525
            ],
            [
              -79.40093587876548,
              43.676851422247715
            ],
            [
              -79.40103054301883,
              43.676828901934925
            ],
            [
              -79.40113944186392,
              43.676792990891336
            ],
            [
              -79.40124844481615,
              43.676761580493185
            ],
            [
              -79.40135784453211,
              43.67673016133197
            ],
            [
              -79.40146746735441,
              43.6766987512595
            ],
            [
              -79.40157758614019,
              43.67666734150877
            ],
            [
              -79.40168780908078,
              43.67664043240091
            ],
            [
              -79.40179823035392,
              43.67661352335702
            ],
            [
              -79.4019091796088,
              43.67658219501165
            ],
            [
              -79.40202000993989,
              43.67655528610426
            ],
            [
              -79.4021313683672,
              43.676523876881724
            ],
            [
              -79.40224291064236,
              43.67650137901395
            ],
            [
              -79.40235465827092,
              43.676474560579344
            ],
            [
              -79.40246662918005,
              43.67644765221265
            ],
            [
              -79.40257868681711,
              43.67642073480878
            ],
            [
              -79.40269154320391,
              43.67639831863462
            ],
            [
              -79.40280402231294,
              43.67637140136837
            ],
            [
              -79.40285983805322,
              43.67635925202551
            ],
            [
              -79.4028831121804,
              43.67635418605569
            ],
            [
              -79.40291679169614,
              43.67634899389897
            ],
            [
              -79.40302997027186,
              43.676326577664014
            ],
            [
              -79.40314355286229,
              43.67629966099938
            ],
            [
              -79.40496695474464,
              43.67592085866249
            ],
            [
              -79.40731111254945,
              43.675433732697314
            ],
            [
              -79.4073338893658,
              43.675428998466025
            ],
            [
              -79.4078479670311,
              43.6753221993092
            ],
            [
              -79.41136090740609,
              43.674595861213945
            ],
            [
              -79.41214264186604,
              43.67444022875562
            ],
            [
              -79.41218610934293,
              43.67443157587912
            ],
            [
              -79.41371611921605,
              43.67411151977899
            ],
            [
              -79.41465349429069,
              43.67391876703646
            ],
            [
              -79.41466099931984,
              43.67391722441193
            ],
            [
              -79.41466086338936,
              43.67391688226013
            ],
            [
              -79.4146568225523,
              43.67390670774766
            ],
            [
              -79.41435870543198,
              43.6731567824965
            ],
            [
              -79.41395353362387,
              43.672122910011936
            ],
            [
              -79.41324100884422,
              43.67031449075016
            ],
            [
              -79.4131625589782,
              43.670118985315874
            ],
            [
              -79.41296463802375,
              43.66960907147208
            ],
            [
              -79.4123836051789,
              43.66811359644261
            ],
            [
              -79.41178846169826,
              43.66662054654331
            ],
            [
              -79.41140446620504,
              43.665639599041604
            ],
            [
              -79.41134817356165,
              43.66549503893734
            ],
            [
              -79.41119544124828,
              43.66512040175177
            ],
            [
              -79.41068152752813,
              43.66383291797041
            ],
            [
              -79.41021317175209,
              43.66267405154425
            ],
            [
              -79.4097464480664,
              43.66152195326344
            ],
            [
              -79.40905416944241,
              43.659814569650564
            ],
            [
              -79.40846853785025,
              43.658289193031216
            ],
            [
              -79.40770212318449,
              43.65646578547847
            ],
            [
              -79.4075236673491,
              43.65602268474718
            ],
            [
              -79.40682301028284,
              43.65429108356509
            ],
            [
              -79.40601306712345,
              43.65229532394219
            ],
            [
              -79.4056527332189,
              43.65138740214588
            ],
            [
              -79.4056046851306,
              43.65126756339063
            ],
            [
              -79.40549965022996,
              43.65100498796527
            ],
            [
              -79.40545428662122,
              43.650889102954935
            ],
            [
              -79.4052480041293,
              43.650362154551736
            ],
            [
              -79.40521248196372,
              43.65027141839023
            ],
            [
              -79.40501005594865,
              43.64975425717868
            ],
            [
              -79.4047025404117,
              43.648968641375745
            ],
            [
              -79.40461109522407,
              43.6488185393893
            ],
            [
              -79.40456442481462,
              43.64870022252309
            ],
            [
              -79.40429625362366,
              43.64803137701857
            ],
            [
              -79.40415296245791,
              43.647675937097375
            ],
            [
              -79.40401050329618,
              43.64718829461607
            ],
            [
              -79.40386580940812,
              43.64682864046538
            ],
            [
              -79.40371879908119,
              43.64646132399478
            ],
            [
              -79.40331639691229,
              43.64550244673151
            ],
            [
              -79.40323373350714,
              43.645192009597864
            ],
            [
              -79.40310556551825,
              43.64489043618133
            ],
            [
              -79.40295558420229,
              43.644541901945836
            ],
            [
              -79.40290072051847,
              43.644412235630135
            ],
            [
              -79.40270552231667,
              43.643926310705226
            ],
            [
              -79.40239672808768,
              43.64319407395035
            ],
            [
              -79.40215258188894,
              43.64264449347401
            ],
            [
              -79.4018650225404,
              43.64191881729183
            ],
            [
              -79.40171987792458,
              43.641539491703945
            ],
            [
              -79.40162387458278,
              43.64128498526821
            ],
            [
              -79.40148234548543,
              43.64090978507815
            ],
            [
              -79.4014219974625,
              43.64074979661027
            ],
            [
              -79.4013481333008,
              43.640555852253385
            ],
            [
              -79.40127135646887,
              43.640369745525675
            ],
            [
              -79.40127134417756,
              43.64036968250543
            ],
            [
              -79.40066287445413,
              43.63887221728268
            ],
            [
              -79.400649567486,
              43.63883946770379
            ],
            [
              -79.40035251144772,
              43.638122402303715
            ],
            [
              -79.4003095045157,
              43.63802473583914
            ],
            [
              -79.40024831308355,
              43.63787623169708
            ],
            [
              -79.4000308918897,
              43.63737151437802
            ],
            [
              -79.40001795264907,
              43.6373416364792
            ],
            [
              -79.39981541302248,
              43.636826328089654
            ],
            [
              -79.39972093702114,
              43.63663156336022
            ],
            [
              -79.3996294171833,
              43.63647795546307
            ],
            [
              -79.3993947782177,
              43.6362114883065
            ],
            [
              -79.39851304812055,
              43.63581219069692
            ],
            [
              -79.39834161409053,
              43.63570570503001
            ],
            [
              -79.39804779106076,
              43.63534482991779
            ],
            [
              -79.39795556274846,
              43.63524737065161
            ],
            [
              -79.39785937050343,
              43.635170880994025
            ],
            [
              -79.39744366545935,
              43.63467819606331
            ],
            [
              -79.39717031308938,
              43.63435422467396
            ],
            [
              -79.39721959238928,
              43.63433022628838
            ],
            [
              -79.3977578853517,
              43.634042439592605
            ],
            [
              -79.39779975030388,
              43.634020054573796
            ],
            [
              -79.39781805647297,
              43.63400457955188
            ],
            [
              -79.39782418575285,
              43.63398579013526
            ],
            [
              -79.39781964453685,
              43.63396698217982
            ],
            [
              -79.39781054451979,
              43.63394706297858
            ],
            [
              -79.39780475472931,
              43.633941035875296
            ],
            [
              -79.3976827646309,
              43.633819291018355
            ],
            [
              -79.39761522895631,
              43.63385168955323
            ],
            [
              -79.39755143702814,
              43.63379590481712
            ],
            [
              -79.3975236652567,
              43.63377328644456
            ],
            [
              -79.39745905630114,
              43.63371705985578
            ],
            [
              -79.39744762007317,
              43.63370822823798
            ],
            [
              -79.39734460526883,
              43.63369553383754
            ],
            [
              -79.39687243588874,
              43.633951495363654
            ],
            [
              -79.39550063912465,
              43.634693359040114
            ],
            [
              -79.39695026357656,
              43.636418223973756
            ],
            [
              -79.39695985676974,
              43.63643244580418
            ],
            [
              -79.39694676906232,
              43.636432434006856
            ],
            [
              -79.39695696322477,
              43.63645035594748
            ],
            [
              -79.39596669069799,
              43.63653928384931
            ],
            [
              -79.3959474153859,
              43.636512352172836
            ],
            [
              -79.39497610758907,
              43.63534604584585
            ],
            [
              -79.39447312571382,
              43.63545557956553
            ],
            [
              -79.39287752913215,
              43.63622883561387
            ],
            [
              -79.39191026892603,
              43.63631794797228
            ],
            [
              -79.39189636036096,
              43.6363195550695
            ],
            [
              -79.39188755634382,
              43.63632207613229
            ],
            [
              -79.3918792648214,
              43.63632908036769
            ],
            [
              -79.39187443962663,
              43.63633825721434
            ],
            [
              -79.39187228471275,
              43.63634428610255
            ],
            [
              -79.39187227499626,
              43.636349704925756
            ],
            [
              -79.391874817273,
              43.636355738256746
            ],
            [
              -79.39188094131389,
              43.63636177497529
            ],
            [
              -79.39188574377063,
              43.6363652810551
            ],
            [
              -79.39189493194921,
              43.63636970042181
            ],
            [
              -79.39190454538573,
              43.636371959858046
            ],
            [
              -79.39191333135267,
              43.636372598262255
            ],
            [
              -79.39192365526146,
              43.63637260802296
            ],
            [
              -79.39291494485632,
              43.63628504829892
            ],
            [
              -79.39447821297752,
              43.63552301362976
            ],
            [
              -79.39448762907432,
              43.63551762149052
            ],
            [
              -79.39466031685251,
              43.635725181632495
            ],
            [
              -79.39526227178396,
              43.63644536830668
            ],
            [
              -79.39520007735699,
              43.63653262471791
            ],
            [
              -79.39513858099205,
              43.636617469363784
            ],
            [
              -79.39477365049136,
              43.63665151031681
            ],
            [
              -79.39388246627394,
              43.63673655071733
            ],
            [
              -79.39349913331144,
              43.63677552127714
            ],
            [
              -79.3934991453937,
              43.636768680238035
            ],
            [
              -79.39345336075601,
              43.636762867688994
            ],
            [
              -79.39339827240002,
              43.63675480510213
            ],
            [
              -79.39337455478531,
              43.63675253263738
            ],
            [
              -79.39335411753001,
              43.6367525135735
            ],
            [
              -79.39333202792842,
              43.63675474330971
            ],
            [
              -79.39330206830819,
              43.63675696569648
            ],
            [
              -79.39327834034135,
              43.63676054410048
            ],
            [
              -79.39325308236599,
              43.636767271554575
            ],
            [
              -79.39321687450395,
              43.63677749931443
            ],
            [
              -79.39319161013718,
              43.63678782730178
            ],
            [
              -79.39317420354985,
              43.63679807261277
            ],
            [
              -79.39315376627924,
              43.636798053513054
            ],
            [
              -79.39315375399828,
              43.63680498456573
            ],
            [
              -79.39288586738796,
              43.636830378810814
            ],
            [
              -79.39185957131751,
              43.63693032707083
            ],
            [
              -79.39184329546691,
              43.636890435551884
            ],
            [
              -79.39162821595133,
              43.63637206729204
            ],
            [
              -79.39162168407684,
              43.63636540007654
            ],
            [
              -79.39161544334158,
              43.63636224367595
            ],
            [
              -79.39160278868563,
              43.63635575068187
            ],
            [
              -79.39158293773801,
              43.636360583602546
            ],
            [
              -79.39157199794843,
              43.636365352961114
            ],
            [
              -79.39156318698329,
              43.636371726584095
            ],
            [
              -79.39155878537113,
              43.636379652626935
            ],
            [
              -79.39155877389443,
              43.63638603459635
            ],
            [
              -79.39159153654995,
              43.63647221790271
            ],
            [
              -79.39177975040734,
              43.63691926984947
            ],
            [
              -79.39197221917703,
              43.63739341962946
            ],
            [
              -79.39196128779442,
              43.63739340929904
            ],
            [
              -79.39196310579673,
              43.63740250241203
            ],
            [
              -79.39177174684902,
              43.63744940763038
            ],
            [
              -79.39164512792635,
              43.63747863218782
            ],
            [
              -79.39152761279081,
              43.63750408466353
            ],
            [
              -79.39138013294117,
              43.637534279282846
            ],
            [
              -79.39125608762818,
              43.63755882513621
            ],
            [
              -79.39102746178818,
              43.63700758787763
            ],
            [
              -79.3895741016151,
              43.63713687529073
            ],
            [
              -79.38958957239356,
              43.63717569518897
            ],
            [
              -79.38990293356547,
              43.63794522840592
            ],
            [
              -79.38963231963172,
              43.63800131610185
            ],
            [
              -79.389622236219,
              43.6380322711137
            ],
            [
              -79.38948948959727,
              43.63806301759823
            ],
            [
              -79.3894744756461,
              43.63805211141352
            ],
            [
              -79.3894620305565,
              43.63803940743479
            ],
            [
              -79.38945200381892,
              43.638039397739114
            ],
            [
              -79.38919141580845,
              43.638095485083824
            ],
            [
              -79.38881536537573,
              43.637176448052436
            ],
            [
              -79.38713927695099,
              43.63733316691172
            ],
            [
              -79.38714638608276,
              43.63735567738268
            ],
            [
              -79.38760665437077,
              43.63848762231805
            ],
            [
              -79.3870754345536,
              43.638598067807294
            ],
            [
              -79.38659190225383,
              43.637398848362636
            ],
            [
              -79.3865873359611,
              43.63738192123634
            ],
            [
              -79.38557946232102,
              43.637475269372864
            ],
            [
              -79.38556931688348,
              43.63748561080576
            ],
            [
              -79.38558787209745,
              43.63756971127536
            ],
            [
              -79.38569095004502,
              43.63755128054927
            ],
            [
              -79.38573842539837,
              43.63806446969826
            ],
            [
              -79.38524086991269,
              43.6381674511657
            ],
            [
              -79.38512012050751,
              43.637910745551096
            ],
            [
              -79.38516778001967,
              43.63790180105636
            ],
            [
              -79.38502927671189,
              43.6376225740473
            ],
            [
              -79.38544686680518,
              43.637582613067096
            ],
            [
              -79.38543461760125,
              43.63751949211185
            ],
            [
              -79.3844023237605,
              43.63761288640416
            ],
            [
              -79.38467065569711,
              43.63820723051153
            ],
            [
              -79.38493354198607,
              43.63887819718294
            ],
            [
              -79.38499565661418,
              43.639004296989526
            ],
            [
              -79.38423709008136,
              43.63911597656518
            ],
            [
              -79.38396436064733,
              43.63835949422791
            ],
            [
              -79.3836743854078,
              43.63769310641325
            ],
            [
              -79.38218302751585,
              43.63781744543195
            ],
            [
              -79.3809113766767,
              43.63793301970326
            ],
            [
              -79.37957597983785,
              43.63806656946054
            ],
            [
              -79.38007493159853,
              43.6392102690968
            ],
            [
              -79.38026609456901,
              43.63968763250527
            ],
            [
              -79.38015254606556,
              43.63971451765177
            ],
            [
              -79.38008849151201,
              43.639583903505454
            ],
            [
              -79.38004993165882,
              43.63959691504934
            ],
            [
              -79.37984972737205,
              43.639664656202356
            ],
            [
              -79.37957744794397,
              43.63946629439515
            ],
            [
              -79.37882895191144,
              43.638376615725875
            ],
            [
              -79.37840158195702,
              43.638535054280126
            ],
            [
              -79.3786863515771,
              43.63896504664622
            ],
            [
              -79.37874048272924,
              43.63904234490466
            ],
            [
              -79.37774014827542,
              43.63938325079559
            ],
            [
              -79.37763166528954,
              43.639234602988736
            ],
            [
              -79.37753663345873,
              43.63926150535826
            ],
            [
              -79.37759460770323,
              43.63936220285276
            ],
            [
              -79.37762304301272,
              43.63940355862134
            ],
            [
              -79.37745987979235,
              43.63945469169055
            ],
            [
              -79.37715539826984,
              43.63899994834025
            ],
            [
              -79.37633617761672,
              43.639302420517
            ],
            [
              -79.37541553562559,
              43.6396481809618
            ],
            [
              -79.37555913424544,
              43.63992550776839
            ],
            [
              -79.3754711620999,
              43.63994791541368
            ],
            [
              -79.37535457786497,
              43.63976325112791
            ],
            [
              -79.3752594671097,
              43.63967763430199
            ],
            [
              -79.37519245401805,
              43.63970006460197
            ],
            [
              -79.37541445464007,
              43.64003337570651
            ],
            [
              -79.37482991730063,
              43.640244287518435
            ],
            [
              -79.37467590457678,
              43.63996955879454
            ],
            [
              -79.3745755343578,
              43.640005454222894
            ],
            [
              -79.37473149283,
              43.64028009519865
            ],
            [
              -79.3745000780274,
              43.64035636207906
            ],
            [
              -79.3743425178495,
              43.64011322384857
            ],
            [
              -79.37428339296679,
              43.64012675092158
            ],
            [
              -79.37422508644578,
              43.640140107838256
            ],
            [
              -79.37445836191347,
              43.640509339666096
            ],
            [
              -79.37443373249788,
              43.64059933537491
            ],
            [
              -79.37432922267767,
              43.64056321503017
            ],
            [
              -79.37431757821517,
              43.640554200852826
            ],
            [
              -79.37428631328476,
              43.64054515609811
            ],
            [
              -79.37422475693913,
              43.64050008150928
            ],
            [
              -79.37421318649672,
              43.64050907015438
            ],
            [
              -79.37420191652282,
              43.64052255981687
            ],
            [
              -79.37422999794084,
              43.64059011003478
            ],
            [
              -79.37428954275599,
              43.6406666872228
            ],
            [
              -79.3743196172083,
              43.6407117271685
            ],
            [
              -79.37435672242611,
              43.64076127552126
            ],
            [
              -79.3743900607269,
              43.64075681147005
            ],
            [
              -79.37465772388931,
              43.64076160594906
            ],
            [
              -79.37504808582518,
              43.641356142045325
            ],
            [
              -79.37519251984344,
              43.64157234181091
            ],
            [
              -79.37453502027839,
              43.64181458716965
            ],
            [
              -79.374533086696,
              43.641814585047484
            ],
            [
              -79.374062774429,
              43.64111652439349
            ],
            [
              -79.3735325488463,
              43.64032829168037
            ],
            [
              -79.37189549322956,
              43.64094310814207
            ],
            [
              -79.37013801295555,
              43.64159876561235
            ],
            [
              -79.36904116663466,
              43.64199744538597
            ],
            [
              -79.36826672277253,
              43.64227102544736
            ],
            [
              -79.36912955561394,
              43.64357273272907
            ],
            [
              -79.3688143054219,
              43.64368866910442
            ],
            [
              -79.3682996164508,
              43.643877844200574
            ],
            [
              -79.36744175276003,
              43.64259413923307
            ],
            [
              -79.36619032476021,
              43.643056278928654
            ],
            [
              -79.36490448057987,
              43.64354075962902
            ],
            [
              -79.36429961681023,
              43.64376903809105
            ],
            [
              -79.36375114549334,
              43.64397594830623
            ],
            [
              -79.36375004009732,
              43.643971446303645
            ],
            [
              -79.36240863887595,
              43.644482737710675
            ],
            [
              -79.36114140978994,
              43.64495818798838
            ],
            [
              -79.36020356189245,
              43.645298997928585
            ],
            [
              -79.36096445335582,
              43.64642506977558
            ],
            [
              -79.3608029830237,
              43.647022437944415
            ],
            [
              -79.36075153521958,
              43.647212412108686
            ],
            [
              -79.36007904356741,
              43.646401486060874
            ],
            [
              -79.35942807571602,
              43.645585487639124
            ],
            [
              -79.35569385752392,
              43.647218876382404
            ],
            [
              -79.35450403316672,
              43.64773926733224
            ],
            [
              -79.35444449432718,
              43.64776527749133
            ],
            [
              -79.35388028100455,
              43.64800929578025
            ],
            [
              -79.34779867825299,
              43.65063917338949
            ],
            [
              -79.3473470774326,
              43.650856521137406
            ],
            [
              -79.34742076160325,
              43.65098932654343
            ],
            [
              -79.3474955476148,
              43.65109834277806
            ],
            [
              -79.34761519851637,
              43.651256035113306
            ],
            [
              -79.34773104653016,
              43.651422633598145
            ],
            [
              -79.34785808614207,
              43.65157582583169
            ],
            [
              -79.34865077943422,
              43.65253149000596
            ],
            [
              -79.34952368769748,
              43.65359940202384
            ],
            [
              -79.35083877722666,
              43.6547690872192
            ],
            [
              -79.35174184377017,
              43.65556567549792
            ],
            [
              -79.35197813790835,
              43.65574411845807
            ],
            [
              -79.3521513263083,
              43.655888373204384
            ],
            [
              -79.35224908414968,
              43.655978522110104
            ],
            [
              -79.35233418016828,
              43.656055143547874
            ],
            [
              -79.35242072553568,
              43.656127275118386
            ],
            [
              -79.3525155197542,
              43.65621291028981
            ],
            [
              -79.35260717342726,
              43.65628504830769
            ],
            [
              -79.35268911991243,
              43.656357164741095
            ],
            [
              -79.35279422041359,
              43.6564517332969
            ],
            [
              -79.35293977733443,
              43.65656579672338
            ],
            [
              -79.35300224386074,
              43.656614034289575
            ],
            [
              -79.35310162969068,
              43.656708685223414
            ],
            [
              -79.35320217551595,
              43.65678532585812
            ],
            [
              -79.35330810656352,
              43.65687548433979
            ],
            [
              -79.35341876006437,
              43.65696114810271
            ],
            [
              -79.35353401351547,
              43.65704680864979
            ],
            [
              -79.35364686794742,
              43.65715047770776
            ],
            [
              -79.35375514500569,
              43.657245130446256
            ],
            [
              -79.35387422692422,
              43.657357808591925
            ],
            [
              -79.35398557962523,
              43.657452375026836
            ],
            [
              -79.35410965877291,
              43.657565059306165
            ],
            [
              -79.35420514404561,
              43.657664204961364
            ],
            [
              -79.35428266157595,
              43.65779033167745
            ],
            [
              -79.35434557299637,
              43.65791193905459
            ],
            [
              -79.35439561393595,
              43.658029029327935
            ],
            [
              -79.35442518729695,
              43.65815060318925
            ],
            [
              -79.35445085691303,
              43.658276663742306
            ],
            [
              -79.35448153702158,
              43.65840723133879
            ],
            [
              -79.35451876216962,
              43.65853322556816
            ],
            [
              -79.35456025531032,
              43.658668316573106
            ],
            [
              -79.35460302106314,
              43.65878989815722
            ],
            [
              -79.35464564281044,
              43.65892499056059
            ],
            [
              -79.35467673126789,
              43.65905105793607
            ],
            [
              -79.3547090147092,
              43.65919063783945
            ],
            [
              -79.35473235289778,
              43.659312203671675
            ],
            [
              -79.35476914830372,
              43.659447189597756
            ],
            [
              -79.35480452866427,
              43.659577772053616
            ],
            [
              -79.35484835875401,
              43.65972635891401
            ],
            [
              -79.35494181267443,
              43.659996544892245
            ],
            [
              -79.35498606182169,
              43.66013613087629
            ],
            [
              -79.35503227012181,
              43.66027572832568
            ],
            [
              -79.35507611210211,
              43.66041981442376
            ],
            [
              -79.35517032016764,
              43.66071240548287
            ],
            [
              -79.35521952107337,
              43.66088144102676
            ],
            [
              -79.35525602498745,
              43.66100958536926
            ],
            [
              -79.35529406224991,
              43.66114466267231
            ],
            [
              -79.3553398180551,
              43.66129776141408
            ],
            [
              -79.35537815325654,
              43.66143283905942
            ],
            [
              -79.35541461982068,
              43.66157682565404
            ],
            [
              -79.35545024800156,
              43.66173441220102
            ],
            [
              -79.3554798237305,
              43.661851467040314
            ],
            [
              -79.35552214122586,
              43.66199105933101
            ],
            [
              -79.35556945731571,
              43.662135149587584
            ],
            [
              -79.3556132895236,
              43.66227923542058
            ],
            [
              -79.35566409933757,
              43.662414328702674
            ],
            [
              -79.35571761906166,
              43.66256733804734
            ],
            [
              -79.3557598120356,
              43.662702411402556
            ],
            [
              -79.35580513627283,
              43.66285549136928
            ],
            [
              -79.35583742112864,
              43.6629860515205
            ],
            [
              -79.35585516163346,
              43.66304935331192
            ],
            [
              -79.35588038993883,
              43.663139128479294
            ],
            [
              -79.3559141010334,
              43.663269681399186
            ],
            [
              -79.35595942444732,
              43.6634182606189
            ],
            [
              -79.3559974493703,
              43.66354422826048
            ],
            [
              -79.35608636972624,
              43.663796350726784
            ],
            [
              -79.35612743441513,
              43.66392691282633
            ],
            [
              -79.3561562081796,
              43.6640484851084
            ],
            [
              -79.35619969097765,
              43.66417908622436
            ],
            [
              -79.3562301231847,
              43.664291668232124
            ],
            [
              -79.3562669709983,
              43.6644177513018
            ],
            [
              -79.35630395222434,
              43.66453475217497
            ],
            [
              -79.35634784485143,
              43.664665362740024
            ],
            [
              -79.35637469746949,
              43.664786941538544
            ],
            [
              -79.35639929181517,
              43.664904016822824
            ],
            [
              -79.35643002567188,
              43.66502560948021
            ],
            [
              -79.3564630163915,
              43.665147195959264
            ],
            [
              -79.35649762084532,
              43.665273294121576
            ],
            [
              -79.35653152774671,
              43.66539037205631
            ],
            [
              -79.35657737898555,
              43.665516466301206
            ],
            [
              -79.35718350028063,
              43.66769700628486
            ],
            [
              -79.35732075318451,
              43.66819075672979
            ],
            [
              -79.35734613046709,
              43.66827180938881
            ],
            [
              -79.35738455983632,
              43.66837087198725
            ],
            [
              -79.35742740204623,
              43.66846544841063
            ],
            [
              -79.35746515678652,
              43.6685510171417
            ],
            [
              -79.35750799946338,
              43.668645503519166
            ],
            [
              -79.35755701037779,
              43.668722084916745
            ],
            [
              -79.35760880798415,
              43.668789659431354
            ],
            [
              -79.3576860776965,
              43.668861775302986
            ],
            [
              -79.35774574828814,
              43.66892998964834
            ],
            [
              -79.35775297385385,
              43.66894737120801
            ],
            [
              -79.35780590028364,
              43.66901495603669
            ],
            [
              -79.35797108931119,
              43.669150190355474
            ],
            [
              -79.35814205926462,
              43.66925842761622
            ],
            [
              -79.35831339669834,
              43.669384667734626
            ],
            [
              -79.35854168725471,
              43.669564995065436
            ],
            [
              -79.35874560585837,
              43.66966868150626
            ],
            [
              -79.35894289316703,
              43.66980845472946
            ],
            [
              -79.3597261405513,
              43.66988656894051
            ],
            [
              -79.36095697170677,
              43.67003656761177
            ],
            [
              -79.36095794590669,
              43.67003892714493
            ],
            [
              -79.36101213884163,
              43.67004328668301
            ],
            [
              -79.36122626750928,
              43.670083044665496
            ],
            [
              -79.36134210451354,
              43.670108685996766
            ],
            [
              -79.3615070389167,
              43.67015986946623
            ],
            [
              -79.361707163492,
              43.67023940445394
            ],
            [
              -79.36173309728525,
              43.67024843715399
            ],
            [
              -79.36175905381678,
              43.670252969211305
            ],
            [
              -79.36178421878616,
              43.67026200096998
            ],
            [
              -79.36180938168863,
              43.67026653205629
            ],
            [
              -79.36183416225238,
              43.67027556333922
            ],
            [
              -79.36185855840468,
              43.67028459415222
            ],
            [
              -79.36188257014533,
              43.67029362449555
            ],
            [
              -79.36190656949258,
              43.670302654818855
            ],
            [
              -79.36263571693937,
              43.670546569200106
            ],
            [
              -79.36341953297057,
              43.67081774626476
            ],
            [
              -79.36406581441103,
              43.67104136248706
            ],
            [
              -79.36421460716818,
              43.671092837892495
            ],
            [
              -79.36434563123596,
              43.67113817111646
            ],
            [
              -79.36436257048267,
              43.67114379904401
            ],
            [
              -79.36463980689118,
              43.671235977207694
            ],
            [
              -79.3646733756597,
              43.67124715159431
            ],
            [
              -79.36498034055329,
              43.67134920257083
            ],
            [
              -79.36586578690398,
              43.6716443633414
            ],
            [
              -79.36605200125474,
              43.671676887456016
            ],
            [
              -79.36621681148452,
              43.671709548242966
            ],
            [
              -79.36639753601392,
              43.67171817584907
            ],
            [
              -79.36654351754177,
              43.6717192285028
            ],
            [
              -79.36666268603466,
              43.67171567702369
            ],
            [
              -79.36674000380506,
              43.671711014483535
            ],
            [
              -79.36685891335576,
              43.67169556274443
            ],
            [
              -79.36702987774966,
              43.6716932503723
            ],
            [
              -79.36722521629207,
              43.671693693459964
            ],
            [
              -79.3673952305747,
              43.67168921011815
            ],
            [
              -79.3675747213575,
              43.67168372035212
            ],
            [
              -79.3677565359953,
              43.67168728832707
            ],
            [
              -79.36788524250906,
              43.67170551181467
            ],
            [
              -79.3680391786558,
              43.6717322975425
            ],
            [
              -79.3680784009823,
              43.67173880576622
            ],
            [
              -79.3682600226437,
              43.6718023395538
            ],
            [
              -79.36837300581234,
              43.67185429934362
            ],
            [
              -79.36852950068082,
              43.67190787530347
            ],
            [
              -79.36863458783459,
              43.67195846655206
            ],
            [
              -79.36883460573708,
              43.672145293721435
            ],
            [
              -79.36891985067693,
              43.672196447022486
            ],
            [
              -79.36902020540768,
              43.672256627900495
            ],
            [
              -79.36910091101049,
              43.672296767243104
            ],
            [
              -79.36921705573282,
              43.672349818975036
            ],
            [
              -79.36939027957102,
              43.67242724839983
            ],
            [
              -79.36953795139061,
              43.67247891361297
            ],
            [
              -79.36965214980975,
              43.67251480615409
            ],
            [
              -79.36972500622355,
              43.672537770576724
            ],
            [
              -79.36991669493199,
              43.672575749432895
            ],
            [
              -79.37017572864113,
              43.67263365239313
            ],
            [
              -79.37040297940672,
              43.672668187303074
            ],
            [
              -79.37077537849868,
              43.672700347564124
            ],
            [
              -79.3712659209868,
              43.67274539459978
            ],
            [
              -79.37219648505054,
              43.67282999808358
            ],
            [
              -79.37303202277148,
              43.67289632380971
            ],
            [
              -79.37361241687938,
              43.67294056040692
            ],
            [
              -79.37407769656465,
              43.672988303843184
            ],
            [
              -79.37442286122801,
              43.67304680509826
            ],
            [
              -79.37458294750066,
              43.67306514552217
            ],
            [
              -79.37471805574292,
              43.67307255774551
            ],
            [
              -79.37495838616003,
              43.673075062217805
            ],
            [
              -79.37531963957538,
              43.6730662214519
            ],
            [
              -79.37542933696021,
              43.67307404618079
            ],
            [
              -79.3760061487749,
              43.67313121062379
            ],
            [
              -79.37623969031665,
              43.67315458811056
            ],
            [
              -79.37645200830276,
              43.673180507561014
            ],
            [
              -79.37664309183883,
              43.673196124191975
            ],
            [
              -79.3768271278033,
              43.67320145339754
            ],
            [
              -79.37716334590861,
              43.673197557558744
            ],
            [
              -79.37975901040002,
              43.67318031639438
            ],
            [
              -79.38400075363725,
              43.67352904512197
            ],
            [
              -79.38497901330982,
              43.67357737160266
            ],
            [
              -79.38525236502859,
              43.673595973019744
            ],
            [
              -79.38536724365386,
              43.67360630478157
            ],
            [
              -79.38548789586271,
              43.6736390825118
            ],
            [
              -79.38580147503704,
              43.673705006859656
            ],
            [
              -79.38623731392303,
              43.67381350232634
            ],
            [
              -79.38637547677484,
              43.673859951551414
            ],
            [
              -79.3865614415584,
              43.673948898296544
            ],
            [
              -79.38670484528865,
              43.67403781156432
            ],
            [
              -79.38686417380542,
              43.67414603924931
            ],
            [
              -79.38700751845131,
              43.67427354074645
            ],
            [
              -79.38711895263114,
              43.67440874269028
            ],
            [
              -79.38719316322963,
              43.67454774235795
            ],
            [
              -79.38726200744092,
              43.674698312381814
            ],
            [
              -79.38735191441351,
              43.67497242825621
            ],
            [
              -79.38751564731457,
              43.6755862275531
            ],
            [
              -79.3875421449126,
              43.67562870385217
            ],
            [
              -79.38759520823847,
              43.67569050510171
            ],
            [
              -79.38766425632214,
              43.67573302320472
            ],
            [
              -79.38773865883672,
              43.67576397082629
            ],
            [
              -79.38785028825662,
              43.67578337923051
            ],
            [
              -79.38797788794383,
              43.67579122747932
            ],
            [
              -79.38838069518317,
              43.67574575978428
            ],
            [
              -79.38898712096666,
              43.67558882721298
            ],
            [
              -79.3890467481438,
              43.675743842837136
            ]
          ]
        ]
      },
      "properties": {
        "OBJECTID": 37,
        "SECONDARY_PLAN_NUMBER": "41",
        "SECONDARY_PLAN_NAME": "Downtown Plan",
        "STATUS": null
      }
    }
  ]
}
